QZS-1R                  
1 49336U 21096A   24009.56681341 -.00000264  00000+0  00000+0 0  9993
2 49336  35.6164  92.9711 0757959 271.6161  80.1881  1.00248381  8097
